SL-16 R/B               
1 25407U 98045B   26070.05647564  .00000241  00000+0  14589-3 0  9992
2 25407  71.0119 178.6999 0006842   5.8978 354.2225 14.16190639427292
ISS (ZARYA)             
1 25544U 98067A   26070.19118651  .00009215  00000+0  17770-3 0  9998
2 25544  51.6325  64.9326 0007932 179.9008 180.1983 15.48575655556567
CZ-4B R/B               
1 25732U 99025C   26070.07023025  .00000045  00000+0  42571-4 0  9999
2 25732  98.6623 114.3191 0036675 342.6215  46.9601 14.18265542388367
OKEAN-O                 
1 25860U 99039A   26070.13902772  .00000787  00000+0  11012-3 0  9996
2 25860  97.9439 130.0158 0001217  70.2963 289.8380 14.80337832434604
SL-16 R/B               
1 25861U 99039B   26070.11752520  .00000674  00000+0  92216-4 0  9990
2 25861  97.9964 129.2122 0013551 250.9100 109.0645 14.81733787437074
DELTA 2 R/B             
1 25876U 99041E   26070.06999478  .00001302  00000+0  24773-3 0  9999
2 25876  51.7629 295.7675 0502421 352.5015   6.8599 14.11842120363223
HELIOS 1B               
1 25977U 99064A   26070.19354362  .00002258  00000+0  25424-3 0  9992
2 25977  98.1687 332.4810 0002463  73.0960 287.0525 14.87705969685488
TERRA                   
1 25994U 99068A   26070.14568253  .00000517  00000+0  11451-3 0  9997
2 25994  97.9591 123.5248 0002790 148.1025 232.1613 14.61016433395290
SL-16 R/B               
1 26070U 00006B   26070.14289192 -.00000148  00000+0 -51076-4 0  9999
2 26070  71.0008  94.7818 0016686 188.1230 171.9626 14.15825605348767
TITAN 4B R/B            
1 26474U 00047B   26070.15421953  .00005235  00000+0  32766-3 0  9990
2 26474  67.9902  36.3920 0038645  33.6840 326.6753 15.09579532393138
ENVISAT                 
1 27386U 02009A   26069.85399071  .00000176  00000+0  70889-4 0  9991
2 27386  98.3729  23.4236 0001317  82.7249 288.7667 14.39037467259341
IDEFIX & ARIANE 42P R/B 
1 27422U 02021B   26069.82434275  .00000355  00000+0  15153-3 0  9990
2 27422  98.5868   8.4170 0011638 178.8333 181.2879 14.31027114244184
